EUTELSAT QUANTUM        
1 49056U 21069B   25343.14695394  .00000128  00000+0  00000+0 0  9999
2 49056   0.0132  12.1818 0003763 259.1599 267.4033  1.00270774 16024
EUTELSAT KONNECT VHTS   
1 53765U 22110A   25343.13802720  .00000019  00000+0  00000+0 0  9990
2 53765   0.0631 102.6640 0002616 135.7295 252.1373  1.00270735  4927
EUTELSAT HOTBIRD 13F    
1 54048U 22134A   25343.06877615  .00000089  00000+0  00000+0 0  9995
2 54048   0.0489 292.5872 0002159  60.3329 122.9214  1.00271707 11478
EUTELSAT HOTBIRD 13G    
1 54225U 22146A   25343.00739059  .00000089  00000+0  00000+0 0  9998
2 54225   0.0487 236.9876 0001665 310.6291 266.0423  1.00269396  5554
EUTELSAT 10B            
1 54259U 22157A   25343.13950056  .00000070  00000+0  00000+0 0  9993
2 54259   0.0634  98.9247 0000842  78.1718 321.2320  1.00268961 11126
EUTELSAT 36D            
1 59346U 24059A   25343.14461391  .00000158  00000+0  00000+0 0  9995
2 59346   0.0022  26.1636 0000401 283.0923 216.8094  1.00269138  6241
